[{"OBJECT_NAME":"GRUS-1C","OBJECT_ID":"2021-022B","EPOCH":"2026-03-09T22:02:59.067744","MEAN_MOTION":14.98740486,"ECCENTRICITY":0.00125084,"INCLINATION":97.5524,"RA_OF_ASC_NODE":315.2446,"ARG_OF_PERICENTER":300.8214,"MEAN_ANOMALY":59.1778,"EPHEMERIS_TYPE":0,"CLASSIFICATION_TYPE":"U","NORAD_CAT_ID":47933,"ELEMENT_SET_NO":999,"REV_AT_EPOCH":27103,"BSTAR":0.00015887452,"MEAN_MOTION_DOT":1.857e-5,"MEAN_MOTION_DDOT":0},{"OBJECT_NAME":"STARLINK-36221","OBJECT_ID":"2025-304Z","EPOCH":"2026-03-09T16:54:19.604448","MEAN_MOTION":14.98316025,"ECCENTRICITY":0.00041576,"INCLINATION":70.0026,"RA_OF_ASC_NODE":174.5449,"ARG_OF_PERICENTER":274.6212,"MEAN_ANOMALY":85.4472,"EPHEMERIS_TYPE":0,"CLASSIFICATION_TYPE":"U","NORAD_CAT_ID":67215,"ELEMENT_SET_NO":999,"REV_AT_EPOCH":1388,"BSTAR":-0.00041268394,"MEAN_MOTION_DOT":-5.012e-5,"MEAN_MOTION_DDOT":0}]
